{"fetched_at":"2026-03-30T13:17:50Z","count":15418,"tles":[{"name":"STARLINK-32023","line1":"1 60197U 24124Q   26087.84036725 -.00000537  00000+0 -60259-5 0  9997","line2":"2 60197  53.1597 233.8344 0000982  96.0420 264.0693 15.30190342 97220","category":"Starlink"}]}